{
  "type": "FeatureCollection",
  "features": [
    {
      "type": "Feature",
      "properties": {
        "norad_id": 24876,
        "name": "GPS BIIR-2  (PRN 13)",
        "group": "gnss",
        "lat": 47.31295501679682,
        "lon": -121.59399748389869,
        "alt_km": 20048.31601737723,
        "timestamp": "2025-12-19T08:58:49.580404+00:00",
        "meta_object_name": "GPS BIIR-2  (PRN 13)",
        "meta_object_id": "1997-035A",
        "meta_epoch": "2025-12-17T17:14:35.709504",
        "meta_mean_motion": 2.00563699,
        "meta_eccentricity": 0.00967771,
        "meta_inclination": 55.8976,
        "meta_ra_of_asc_node": 105.6742,
        "meta_arg_of_pericenter": 56.9662,
        "meta_mean_anomaly": 303.9295,
        "meta_ephemeris_type": 0,
        "meta_classification_type": "U",
        "meta_norad_cat_id": 24876,
        "meta_element_set_no": 999,
        "meta_rev_at_epoch": 20831,
        "meta_bstar": 0,
        "meta_mean_motion_dot": -2.3e-07,
        "meta_mean_motion_ddot": 0,
        "tle_line1": "1 24876U 97035A   25351.71846886 -.00000023  00000+0  00000+0 0  9999",
        "tle_line2": "2 24876  55.8976 105.6742 0096777  56.9662 303.9295  2.00563699208319"
      },
      "geometry": {
        "type": "Point",
        "coordinates": [
          -121.59399748389869,
          47.31295501679682
        ]
      }
    },
    {
      "type": "Feature",
      "properties": {
        "norad_id": 26360,
        "name": "GPS BIIR-4  (PRN 20)",
        "group": "gnss",
        "lat": -22.763183366904183,
        "lon": -136.353865952788,
        "alt_km": 20099.37410933173,
        "timestamp": "2025-12-19T08:58:49.580458+00:00",
        "meta_object_name": "GPS BIIR-4  (PRN 20)",
        "meta_object_id": "2000-025A",
        "meta_epoch": "2025-12-18T04:28:10.585632",
        "meta_mean_motion": 2.00567362,
        "meta_eccentricity": 0.0038886,
        "meta_inclination": 55.0484,
        "meta_ra_of_asc_node": 26.6175,
        "meta_arg_of_pericenter": 242.5017,
        "meta_mean_anomaly": 188.1576,
        "meta_ephemeris_type": 0,
        "meta_classification_type": "U",
        "meta_norad_cat_id": 26360,
        "meta_element_set_no": 999,
        "meta_rev_at_epoch": 18764,
        "meta_bstar": 0,
        "meta_mean_motion_dot": -7.5e-07,
        "meta_mean_motion_ddot": 0,
        "tle_line1": "1 26360U 00025A   25352.18623363 -.00000075  00000+0  00000+0 0  9994",
        "tle_line2": "2 26360  55.0484  26.6175 0038886 242.5017 188.1576  2.00567362187649"
      },
      "geometry": {
        "type": "Point",
        "coordinates": [
          -136.353865952788,
          -22.763183366904183
        ]
      }
    },
    {
      "type": "Feature",
      "properties": {
        "norad_id": 26407,
        "name": "GPS BIIR-5  (PRN 22)",
        "group": "gnss",
        "lat": 38.374047761497046,
        "lon": -103.84603530354197,
        "alt_km": 20273.05213731521,
        "timestamp": "2025-12-19T08:58:49.580476+00:00",
        "meta_object_name": "GPS BIIR-5  (PRN 22)",
        "meta_object_id": "2000-040A",
        "meta_epoch": "2025-12-18T18:27:27.290304",
        "meta_mean_motion": 2.0056811,
        "meta_eccentricity": 0.0125687,
        "meta_inclination": 54.8894,
        "meta_ra_of_asc_node": 222.3292,
        "meta_arg_of_pericenter": 301.9126,
        "meta_mean_anomaly": 29.2311,
        "meta_ephemeris_type": 0,
        "meta_classification_type": "U",
        "meta_norad_cat_id": 26407,
        "meta_element_set_no": 999,
        "meta_rev_at_epoch": 18632,
        "meta_bstar": 0,
        "meta_mean_motion_dot": 7.5e-07,
        "meta_mean_motion_ddot": 0,
        "tle_line1": "1 26407U 00040A   25352.76906586  .00000075  00000+0  00000+0 0  9997",
        "tle_line2": "2 26407  54.8894 222.3292 0125687 301.9126  29.2311  2.00568110186323"
      },
      "geometry": {
        "type": "Point",
        "coordinates": [
          -103.84603530354197,
          38.374047761497046
        ]
      }
    },
    {
      "type": "Feature",
      "properties": {
        "norad_id": 27663,
        "name": "GPS BIIR-8  (PRN 16)",
        "group": "gnss",
        "lat": -4.273880136766022,
        "lon": 45.13550444234196,
        "alt_km": 20448.75588238795,
        "timestamp": "2025-12-19T08:58:49.580491+00:00",
        "meta_object_name": "GPS BIIR-8  (PRN 16)",
        "meta_object_id": "2003-005A",
        "meta_epoch": "2025-12-18T15:15:29.035872",
        "meta_mean_motion": 2.00570647,
        "meta_eccentricity": 0.0147663,
        "meta_inclination": 54.922,
        "meta_ra_of_asc_node": 222.1438,
        "meta_arg_of_pericenter": 51.8804,
        "meta_mean_anomaly": 318.9428,
        "meta_ephemeris_type": 0,
        "meta_classification_type": "U",
        "meta_norad_cat_id": 27663,
        "meta_element_set_no": 999,
        "meta_rev_at_epoch": 16769,
        "meta_bstar": 0,
        "meta_mean_motion_dot": 7.5e-07,
        "meta_mean_motion_ddot": 0,
        "tle_line1": "1 27663U 03005A   25352.63575273  .00000075  00000+0  00000+0 0  9997",
        "tle_line2": "2 27663  54.9220 222.1438 0147663  51.8804 318.9428  2.00570647167698"
      },
      "geometry": {
        "type": "Point",
        "coordinates": [
          45.13550444234196,
          -4.273880136766022
        ]
      }
    },
    {
      "type": "Feature",
      "properties": {
        "norad_id": 28190,
        "name": "GPS BIIR-11 (PRN 19)",
        "group": "gnss",
        "lat": -14.178367299060596,
        "lon": -87.25369914098079,
        "alt_km": 20471.761163240524,
        "timestamp": "2025-12-19T08:58:49.580505+00:00",
        "meta_object_name": "GPS BIIR-11 (PRN 19)",
        "meta_object_id": "2004-009A",
        "meta_epoch": "2025-12-18T01:19:43.105728",
        "meta_mean_motion": 2.00560667,
        "meta_eccentricity": 0.01084092,
        "meta_inclination": 54.9808,
        "meta_ra_of_asc_node": 283.0048,
        "meta_arg_of_pericenter": 167.7197,
        "meta_mean_anomaly": 302.5438,
        "meta_ephemeris_type": 0,
        "meta_classification_type": "U",
        "meta_norad_cat_id": 28190,
        "meta_element_set_no": 999,
        "meta_rev_at_epoch": 15931,
        "meta_bstar": 0,
        "meta_mean_motion_dot": -5.1e-07,
        "meta_mean_motion_ddot": 0,
        "tle_line1": "1 28190U 04009A   25352.05536002 -.00000051  00000+0  00000+0 0  9996",
        "tle_line2": "2 28190  54.9808 283.0048 0108409 167.7197 302.5438  2.00560667159317"
      },
      "geometry": {
        "type": "Point",
        "coordinates": [
          -87.25369914098079,
          -14.178367299060596
        ]
      }
    },
    {
      "type": "Feature",
      "properties": {
        "norad_id": 28474,
        "name": "GPS BIIR-13 (PRN 02)",
        "group": "gnss",
        "lat": 35.34741692986525,
        "lon": 1.6283068117288082,
        "alt_km": 20212.164176909602,
        "timestamp": "2025-12-19T08:58:49.580517+00:00",
        "meta_object_name": "GPS BIIR-13 (PRN 02)",
        "meta_object_id": "2004-045A",
        "meta_epoch": "2025-12-18T14:06:14.745888",
        "meta_mean_motion": 2.00569895,
        "meta_eccentricity": 0.01708674,
        "meta_inclination": 55.2378,
        "meta_ra_of_asc_node": 332.1705,
        "meta_arg_of_pericenter": 309.5078,
        "meta_mean_anomaly": 245.3843,
        "meta_ephemeris_type": 0,
        "meta_classification_type": "U",
        "meta_norad_cat_id": 28474,
        "meta_element_set_no": 999,
        "meta_rev_at_epoch": 15480,
        "meta_bstar": 0,
        "meta_mean_motion_dot": -8.5e-07,
        "meta_mean_motion_ddot": 0,
        "tle_line1": "1 28474U 04045A   25352.58767067 -.00000085  00000+0  00000+0 0  9993",
        "tle_line2": "2 28474  55.2378 332.1705 0170867 309.5078 245.3843  2.00569895154800"
      },
      "geometry": {
        "type": "Point",
        "coordinates": [
          1.6283068117288082,
          35.34741692986525
        ]
      }
    },
    {
      "type": "Feature",
      "properties": {
        "norad_id": 28874,
        "name": "GPS BIIRM-1 (PRN 17)",
        "group": "gnss",
        "lat": 2.707286843089582,
        "lon": -77.68783343597958,
        "alt_km": 20054.66208623048,
        "timestamp": "2025-12-19T08:58:49.580530+00:00",
        "meta_object_name": "GPS BIIRM-1 (PRN 17)",
        "meta_object_id": "2005-038A",
        "meta_epoch": "2025-12-18T14:46:52.316256",
        "meta_mean_motion": 2.00578112,
        "meta_eccentricity": 0.01314599,
        "meta_inclination": 55.0267,
        "meta_ra_of_asc_node": 280.4644,
        "meta_arg_of_pericenter": 293.6802,
        "meta_mean_anomaly": 240.6678,
        "meta_ephemeris_type": 0,
        "meta_classification_type": "U",
        "meta_norad_cat_id": 28874,
        "meta_element_set_no": 999,
        "meta_rev_at_epoch": 14821,
        "meta_bstar": 0,
        "meta_mean_motion_dot": -4.2e-07,
        "meta_mean_motion_ddot": 0,
        "tle_line1": "1 28874U 05038A   25352.61588329 -.00000042  00000+0  00000+0 0  9999",
        "tle_line2": "2 28874  55.0267 280.4644 0131459 293.6802 240.6678  2.00578112148212"
      },
      "geometry": {
        "type": "Point",
        "coordinates": [
          -77.68783343597958,
          2.707286843089582
        ]
      }
    }
  ]
}